ordinal{string},comment{string},originator{string},norad_cat_id{string},object_name{string},object_type{string},classification_type{string},intldes{string},epoch{timestamp},epoch_microseconds{integer},mean_motion{decimal},eccentricity{decimal},inclination{decimal},ra_of_asc_node{decimal},arg_of_pericenter{decimal},mean_anomaly{decimal},ephemeris_type{string},element_set_no{string},rev_at_epoch{integer},bstar{decimal},mean_motion_dot{decimal},mean_motion_ddot{string},file{string},tle_line0{string},tle_line1{string},tle_line2{string},object_id{string},object_number{string},semimajor_axis{decimal},period{decimal},apogee{decimal},perigee{decimal}
1,GENERATED VIA SPACETRACK.ORG API,JSPOC,40299,HODOYOSHI 1,PAYLOAD,U,14070B,2019-02-22T10:28:52Z,177728,15.2321673000000004,0.00147510000000000002,97.3575000000000017,135.573499999999996,88.9746999999999986,331.774699999999996,0,999,23857,2.16769999999999993e-05,4.43999999999999984e-06,0,2414477,0 HODOYOSHI 1,1 40299U 14070B   19053.43671502  .00000444  00000-0  21677-4 0  9991,2 40299  97.3575 135.5735 0014751  88.9747 331.7747 15.23216730238579,2014-070B,40299,6874.28200000000015,94.5360000000000014,506.286999999999978,486.007000000000005
1,GENERATED VIA SPACETRACK.ORG API,JSPOC,25272,IRIDIUM 55,PAYLOAD,U,98019A,2019-02-22T10:29:12Z,905088,14.3860793000000005,0.000215999999999999992,86.421599999999998,29.8318000000000012,93.3706999999999994,266.773799999999994,0,999,9448,-1.9270999999999999e-05,-3.90000000000000025e-07,0,2414526,0 IRIDIUM 55,1 25272U 98019A   19053.43695492 -.00000039  00000-0 -19271-4 0  9993,2 25272  86.4216  29.8318 0002160  93.3707 266.7738 14.38607930 94481,1998-019A,25272,7141.23800000000028,100.096000000000004,764.645999999999958,761.561000000000035
1,GENERATED VIA SPACETRACK.ORG API,JSPOC,6680,COSMOS 569,PAYLOAD,U,73037F,2019-02-22T10:29:22Z,617312,12.6112817899999996,0.00783129999999999937,74.0194000000000045,161.963799999999992,71.5387000000000057,354.593700000000013,0,999,10447,7.90910000000000056e-05,-2.00000000000000004e-08,0,2414407,0 COSMOS 569,1  6680U 73037F   19053.43706733 -.00000002  00000-0  79091-4 0  9994,2  6680  74.0194 161.9638 0078313  71.5387 354.5937 12.61128179104474,1973-037F,6680,7796.42799999999988,114.183000000000007,1479.34899999999993,1357.23700000000008
1,GENERATED VIA SPACETRACK.ORG API,JSPOC,39084,LANDSAT 8,PAYLOAD,U,13008A,2019-02-22T10:29:26Z,306592,14.5711631300000004,0.000100400000000000001,98.1991000000000014,125.077500000000001,71.7570999999999941,288.373499999999979,0,999,32065,2.08839999999999986e-05,4.89999999999999967e-07,0,2414440,0 LANDSAT 8,1 39084U 13008A   19053.43711003  .00000049  00000-0  20884-4 0  9992,2 39084  98.1991 125.0775 0001004  71.7571 288.3735 14.57116313320657,2013-008A,39084,7080.63699999999972,98.8250000000000028,703.212999999999965,701.791000000000054
1,GENERATED VIA SPACETRACK.ORG API,JSPOC,43748,FLOCK 3R 2,PAYLOAD,U,18096AF,2019-02-22T10:29:33Z,278208,15.2689104100000002,0.00226559999999999999,97.4735000000000014,123.578500000000005,31.8768999999999991,23.2681000000000004,0,999,1301,3.50060000000000033e-05,8.54999999999999945e-06,0,2414423,0 FLOCK 3R 2,1 43748U 18096AF  19053.43719072  .00000855  00000-0  35006-4 0  9997,2 43748  97.4735 123.5785 0022656  31.8769  23.2681 15.26891041 13013,2018-096AF,43748,6863.2489999999998,94.3089999999999975,500.663999999999987,469.564999999999998
1,GENERATED VIA SPACETRACK.ORG API,JSPOC,41898,TANSAT,PAYLOAD,U,16081A,2019-02-22T10:29:34Z,831680,14.5660406899999995,0.00202160000000000013,98.2339000000000055,354.477700000000027,288.911099999999976,70.9887999999999977,0,999,11538,2.60729999999999992e-05,6.99999999999999968e-07,0,2414408,0 TANSAT,1 41898U 16081A   19053.43720870  .00000070  00000-0  26073-4 0  9994,2 41898  98.2339 354.4777 0020216 288.9111  70.9888 14.56604069115383,2016-081A,41898,7082.29699999999957,98.8599999999999994,718.480000000000018,689.844000000000051
1,GENERATED VIA SPACETRACK.ORG API,JSPOC,31119,SAUDICOMSAT 7,PAYLOAD,U,07012C,2019-02-22T10:29:49Z,806528,14.6170951000000002,0.00588270000000000026,98.0366000000000071,5.97339999999999982,288.18810000000002,71.292199999999994,0,999,63183,1.5820000000000001e-05,3.09999999999999997e-07,0,2414433,0 SAUDICOMSAT 7,1 31119U 07012C   19053.43738202  .00000031  00000-0  15820-4 0  9996,2 31119  98.0366   5.9734 0058827 288.1881  71.2922 14.61709510631831,2007-012C,31119,7065.79600000000028,98.5139999999999958,729.226999999999975,646.095000000000027
1,GENERATED VIA SPACETRACK.ORG API,JSPOC,43704,CYGNUS NG-10,PAYLOAD,U,18092A,2019-02-22T10:30:14Z,834880,15.8782191800000003,0.00117329999999999995,51.6385000000000005,210.118500000000012,291.258199999999988,68.7168999999999954,0,999,1511,0.000102100000000000002,0.000275820000000000026,0,2414521,0 CYGNUS NG-10,1 43704U 18092A   19053.43767170  .00027582  00000-0  10210-3 0  9992,2 43704  51.6385 210.1185 0011733 291.2582  68.7169 15.87821918 15115,2018-092A,43704,6686.52700000000004,90.6899999999999977,316.237000000000023,300.547000000000025
1,GENERATED VIA SPACETRACK.ORG API,JSPOC,25940,CBERS 1,PAYLOAD,U,99057A,2019-02-22T10:30:27Z,879552,14.3545832299999994,0.000478300000000000025,98.5559999999999974,355.739199999999983,348.219100000000026,11.8881999999999994,0,999,1409,1.80000000000000005e-05,8.00000000000000017e-08,0,2414401,0 CBERS 1,1 25940U 99057A   19053.43782268  .00000008  00000-0  18000-4 0  9999,2 25940  98.5560 355.7392 0004783 348.2191  11.8882 14.35458323 14099,1999-057A,25940,7151.68000000000029,100.316000000000003,776.966000000000008,770.125
1,GENERATED VIA SPACETRACK.ORG API,JSPOC,32253,INTELSAT 11 (PAS 11),PAYLOAD,U,07044B,2019-02-22T10:30:44Z,406144,1.00272629000000002,0.000158800000000000011,0.0316000000000000031,297.611199999999997,56.1450000000000031,272.955300000000022,0,999,4173,0,-2.91000000000000009e-06,0,2414494,0 INTELSAT 11 (PAS 11),1 32253U 07044B   19053.43801396 -.00000291  00000-0  00000+0 0  9994,2 32253   0.0316 297.6112 0001588  56.1450 272.9553  1.00272629 41735,2007-044B,32253,42164.4950000000026,1436.08400000000006,35793.0559999999969,35779.663999999997
1,GENERATED VIA SPACETRACK.ORG API,JSPOC,42793,CICERO 6,PAYLOAD,U,17036AE,2019-02-22T10:31:06Z,356928,15.2234825300000001,0.000874600000000000008,97.3666000000000054,113.890799999999999,282.435999999999979,77.5896999999999935,0,999,9266,3.73149999999999976e-05,7.9200000000000004e-06,0,2414410,0 CICERO 6,1 42793U 17036AE  19053.43826802  .00000792  00000-0  37315-4 0  9994,2 42793  97.3666 113.8908 0008746 282.4360  77.5897 15.22348253 92665,2017-036AE,42793,6876.89599999999973,94.5900000000000034,504.77600000000001,492.747000000000014
1,GENERATED VIA SPACETRACK.ORG API,JSPOC,43746,LEMUR 2 VLADIMIR,PAYLOAD,U,18096AD,2019-02-22T10:31:33Z,178944,15.2697791800000005,0.00221650000000000015,97.4737999999999971,123.577200000000005,31.1816999999999993,26.5181000000000004,0,999,1303,7.96700000000000012e-05,2.04699999999999988e-05,0,2414474,0 LEMUR 2 VLADIMIR,1 43746U 18096AD  19053.43857846  .00002047  00000-0  79670-4 0  9997,2 43746  97.4738 123.5772 0022165  31.1817  26.5181 15.26977918 13033,2018-096AD,43746,6862.98899999999958,94.3029999999999973,500.065999999999974,469.641999999999996
1,GENERATED VIA SPACETRACK.ORG API,JSPOC,28526,NSS 10 (AMC-12),PAYLOAD,U,05003A,2019-02-22T10:32:22Z,388928,1.00268256,0.00030860000000000002,0.0178999999999999992,133.523400000000009,221.28370000000001,277.879500000000007,0,999,5152,0,-2.73000000000000012e-06,0,2414454,0 NSS 10 (AMC-12),1 28526U 05003A   19053.43914802 -.00000273  00000-0  00000+0 0  9992,2 28526   0.0179 133.5234 0003086 221.2837 277.8795  1.00268256 51523,2005-003A,28526,42165.7209999999977,1436.14699999999993,35800.5979999999981,35774.5729999999967
1,GENERATED VIA SPACETRACK.ORG API,JSPOC,34111,TELSTAR 11N,PAYLOAD,U,09009A,2019-02-22T10:32:22Z,388928,1.0027040599999999,0.000259999999999999977,0.00689999999999999988,92.5918999999999954,231.400299999999987,308.562099999999987,0,999,3662,0,-2.74000000000000002e-06,0,2414498,0 TELSTAR 11N,1 34111U 09009A   19053.43914802 -.00000274  00000-0  00000+0 0  9990,2 34111   0.0069  92.5919 0002600 231.4003 308.5621  1.00270406 36625,2009-009A,34111,42165.1180000000022,1436.11599999999999,35797.9460000000036,35776.0199999999968
1,GENERATED VIA SPACETRACK.ORG API,JSPOC,25977,HELIOS 1B,PAYLOAD,U,99064A,2019-02-22T10:32:23Z,514720,14.8240129500000002,0.000256099999999999991,98.2119,188.528899999999993,95.1050999999999931,265.045399999999972,0,999,3515,9.69959999999999943e-06,2.10000000000000001e-07,0,2414414,0 HELIOS 1B,1 25977U 99064A   19053.43916105  .00000021  00000-0  96996-5 0  9992,2 25977  98.2119 188.5289 0002561  95.1051 265.0454 14.82401295 35154,1999-064A,25977,6999.89099999999962,97.1389999999999958,623.548999999999978,619.962999999999965
1,GENERATED VIA SPACETRACK.ORG API,JSPOC,37234,CHINASAT 20A,PAYLOAD,U,10064A,2019-02-22T10:32:28Z,956192,1.00274526999999991,0.000460500000000000026,0.058900000000000001,127.334299999999999,287.36160000000001,25.4176000000000002,0,999,3024,0,-3.59999999999999984e-06,0,2414517,0 CHINASAT 20A,1 37234U 10064A   19053.43922403 -.00000360  00000-0  00000+0 0  9994,2 37234   0.0589 127.3343 0004605 287.3616  25.4176  1.00274527 30246,2010-064A,37234,42163.9630000000034,1436.05700000000002,35805.2439999999988,35766.4110000000001
1,GENERATED VIA SPACETRACK.ORG API,JSPOC,39442,PUCP-SAT 1,PAYLOAD,U,13066AC,2019-02-22T10:32:33Z,329760,14.9070094999999991,0.00310889999999999994,97.5657000000000068,102.222999999999999,340.754200000000026,19.25,0,999,28433,2.28550000000000006e-05,1.70999999999999993e-06,0,2414486,0 PUCP-SAT 1,1 39442U 13066AC  19053.43927465  .00000171  00000-0  22855-4 0  9991,2 39442  97.5657 102.2230 0031089 340.7542  19.2500 14.90700950284331,2013-066AC,39442,6973.88500000000022,96.597999999999999,617.43100000000004,574.06899999999996
